NORAD_CAT_ID,OBJECT_NAME,OBJECT_TYPE,EPOCH,MEAN_MOTION,ECCENTRICITY,INCLINATION,RA_OF_ASC_NODE,ARG_OF_PERICENTER,MEAN_ANOMALY,BSTAR,MEAN_MOTION_DOT,MEAN_MOTION_DDOT,TLE_LINE0,TLE_LINE1,TLE_LINE2,SEMIMAJOR_AXIS,PERIOD,APOGEE,PERIGEE,DECAYED
53244.0,STARLINK-4125,PAYLOAD,2022-08-08 14:00:01,15.7336521,0.0001364,53.2192,328.8692,358.6525,284.8056,-0.00059661,-0.00084109,0.0,0 STARLINK-4125,1 53244U 22086C   22220.58335648 -.00084109  00000-0 -59661-3 0  9990,2 53244  53.2192 328.8692 0001364 358.6525 284.8056 15.73365210  2994,6727.424,91.524,350.207,348.372,0.0
53244.0,STARLINK-4125,PAYLOAD,2022-08-08 22:00:00,15.73375012,0.0001537,53.2194,327.2191,13.9753,358.5106,-0.001787,-0.00246068,0.0,0 STARLINK-4125,1 53244U 22086C   22220.91667824 -.00246068  00000-0 -17870-2 0  9990,2 53244  53.2194 327.2191 0001537  13.9753 358.5106 15.73375012  1309,6727.396,91.523,350.295,348.227,0.0
53244.0,STARLINK-4125,PAYLOAD,2022-08-09 04:00:00,15.73196994,0.0001585999999999,53.2196,325.9803,32.7965,316.4885,-0.0008364,-0.00116382,0.0,0 STARLINK-4125,1 53244U 22086C   22221.16667824 -.00116382  00000-0 -83640-3 0  9992,2 53244  53.2196 325.9803 0001586  32.7965 316.4885 15.73196994  3088,6727.904,91.533,350.836,348.702,0.0
53244.0,STARLINK-4125,PAYLOAD,2022-08-09 14:00:01,15.73049142,0.0002088,53.2199,323.9206,40.7803,149.5863,-0.0006129999999999,-0.00085244,0.0,0 STARLINK-4125,1 53244U 22086C   22221.58334491 -.00085244  00000-0 -61300-3 0  9990,2 53244  53.2199 323.9206 0002088  40.7803 149.5863 15.73049142  3155,6728.325,91.542,351.595,348.785,0.0
53244.0,STARLINK-4125,PAYLOAD,2022-08-09 22:00:00,15.7302296,0.000199,53.2195,322.2711,37.8871,241.1938,7.4205e-05,9.729e-05,0.0,0 STARLINK-4125,1 53244U 22086C   22221.91667824  .00009729  00000-0  74205-4 0  9997,2 53244  53.2195 322.2711 0001990  37.8871 241.1938 15.73022960  3204,6728.4,91.543,351.60400000000016,348.926,0.0
53244.0,STARLINK-4125,PAYLOAD,2022-08-10 14:00:01,15.73204223,0.0002421999999999,53.2173,318.9698,45.9417,50.5578,1.0627e-05,8.7e-06,0.0,0 STARLINK-4125,1 53244U 22086C   22222.58334491  .00000870  00000-0  10627-4 0  9998,2 53244  53.2173 318.9698 0002422  45.9417  50.5578 15.73204223  1308,6727.8830000000025,91.533,351.37800000000016,348.119,0.0
53244.0,STARLINK-4125,PAYLOAD,2022-08-10 16:00:00,15.73201332,0.0002343999999999,53.2175,318.5576,44.2396,164.4944,6.054600000000001e-05,7.885e-05,0.0,0 STARLINK-4125,1 53244U 22086C   22222.66667824  .00007885  00000-0  60546-4 0  9994,2 53244  53.2175 318.5576 0002344  44.2396 164.4944 15.73201332  3326,6727.891,91.533,351.333,348.17900000000014,0.0
53244.0,STARLINK-4125,PAYLOAD,2022-08-10 22:00:00,15.73280763,0.000179,53.2183,317.3217,35.5551,149.7738,-0.0016913,-0.00232368,0.0,0 STARLINK-4125,1 53244U 22086C   22222.91667824 -.00232368  00000-0 -16913-2 0  9997,2 53244  53.2183 317.3217 0001790  35.5551 149.7738 15.73280763  1302,6727.665,91.528,350.7340000000001,348.326,0.0
53244.0,STARLINK-4125,PAYLOAD,2022-08-11 06:00:02,15.73192455,0.0001666999999999,53.2177,315.6678,31.8896,242.4541,-0.0091187999999999,-0.01141018,0.0,0 STARLINK-4125,1 53244U 22086C   22223.25002315 -.01141018  00000-0 -91188-2 0  9992,2 53244  53.2177 315.6678 0001667  31.8896 242.4541 15.73192455  3418,6727.917,91.534,350.903,348.66,0.0
53244.0,STARLINK-4125,PAYLOAD,2022-08-11 14:00:01,15.72367323,0.0001923,53.2176,314.0196,23.3217,339.3652,-0.009186,-0.0111274,0.0,0 STARLINK-4125,1 53244U 22086C   22223.58334491 -.01112740  00000-0 -91860-2 0  9998,2 53244  53.2176 314.0196 0001923  23.3217 339.3652 15.72367323  1305,6730.27,91.582,353.42900000000014,350.841,0.0
53244.0,STARLINK-4125,PAYLOAD,2022-08-12 14:00:01,15.69952667,0.0001614,53.2174,309.0823,7.077000000000001,255.0182,-0.01007,-0.01102073,0.0,0 STARLINK-4125,1 53244U 22086C   22224.58334491 -.01102073  00000-0 -10070-1 0  9990,2 53244  53.2174 309.0823 0001614   7.0770 255.0182 15.69952667  3620,6737.169,91.723,360.122,357.94699999999995,0.0
53244.0,STARLINK-4125,PAYLOAD,2022-08-12 22:00:01,15.69154561,0.0001372,53.2174,307.4391,33.095,313.6038,-0.010489,-0.01109259,0.0,0 STARLINK-4125,1 53244U 22086C   22224.91668981 -.01109259  00000-0 -10489-1 0  9998,2 53244  53.2174 307.4391 0001372  33.0950 313.6038 15.69154561  1303,6739.454000000002,91.769,362.24300000000005,360.394,0.0
53244.0,STARLINK-4125,PAYLOAD,2022-08-13 04:00:00,15.68549529,0.0001284,53.2173,306.2078,45.4883,273.9179,-0.010709,-0.01104869,0.0,0 STARLINK-4125,1 53244U 22086C   22225.16667824 -.01104869  00000-0 -10709-1 0  9998,2 53244  53.2173 306.2078 0001284  45.4883 273.9179 15.68549529  3717,6741.187,91.805,363.917,362.186,0.0
53244.0,STARLINK-4125,PAYLOAD,2022-08-13 14:00:01,15.67546679,0.0001525,53.2176,304.1625,47.4735,105.3433,-0.011156,-0.01104456,0.0,0 STARLINK-4125,1 53244U 22086C   22225.58334491 -.01104456  00000-0 -11156-1 0  9994,2 53244  53.2176 304.1625 0001525  47.4735 105.3433 15.67546679  1307,6744.061,91.863,366.955,364.898,0.0
53244.0,STARLINK-4125,PAYLOAD,2022-08-13 22:00:00,15.66746686,0.0001358,53.2176,302.525,52.6546,181.8069,-0.011589,-0.01127724,0.0,0 STARLINK-4125,1 53244U 22086C   22225.91667824 -.01127724  00000-0 -11589-1 0  9993,2 53244  53.2176 302.5250 0001358  52.6546 181.8069 15.66746686  1308,6746.357,91.91,369.138,367.306,0.0
53244.0,STARLINK-4125,PAYLOAD,2022-08-14 14:00:01,15.65139203,0.0001447,53.2176,299.2604,39.3528,355.50300000000016,-0.012325,-0.01124169,0.0,0 STARLINK-4125,1 53244U 22086C   22226.58334491 -.01124169  00000-0 -12325-1 0  9997,2 53244  53.2176 299.2604 0001447  39.3528 355.5030 15.65139203  1302,6750.975,92.005,373.817,371.864,0.0
53244.0,STARLINK-4125,PAYLOAD,2022-08-14 22:00:00,15.64335292,0.0001585999999999,53.2174,297.6287,37.8293,75.7781,-0.012703,-0.01122172,0.0,0 STARLINK-4125,1 53244U 22086C   22226.91667824 -.01122172  00000-0 -12703-1 0  9995,2 53244  53.2174 297.6287 0001586  37.8293  75.7781 15.64335292  3991,6753.288000000001,92.052,376.224,374.082,0.0
53244.0,STARLINK-4125,PAYLOAD,2022-08-15 14:00:01,15.62729027,0.0001354,53.2175,294.3759,53.371,214.8413,-0.013516,-0.01120381,0.0,0 STARLINK-4125,1 53244U 22086C   22227.58334491 -.01120381  00000-0 -13516-1 0  9993,2 53244  53.2175 294.3759 0001354  53.3710 214.8413 15.62729027  4091,6757.915,92.146,380.695,378.865,0.0
53244.0,STARLINK-4125,PAYLOAD,2022-08-15 22:00:00,15.61927968,0.0001341999999999,53.2175,292.7498,40.5912,303.4775,-0.0139949999999999,-0.01123803,0.0,0 STARLINK-4125,1 53244U 22086C   22227.91667824 -.01123803  00000-0 -13995-1 0  9992,2 53244  53.2175 292.7498 0001342  40.5912 303.4775 15.61927968  1302,6760.225,92.194,382.99800000000016,381.1830000000001,0.0
53244.0,STARLINK-4125,PAYLOAD,2022-08-16 06:00:02,15.61123734,0.0001441999999999,53.2177,291.1272,40.7018,18.3231,-0.014399,-0.01120866,0.0,0 STARLINK-4125,1 53244U 22086C   22228.25002315 -.01120866  00000-0 -14399-1 0  9993,2 53244  53.2177 291.1272 0001442  40.7018  18.3231 15.61123734  4207,6762.547,92.241,385.387,383.437,0.0
53244.0,STARLINK-4125,PAYLOAD,2022-08-16 14:00:01,15.60317237,0.0001592,53.2176,289.5086,42.8198,90.0665,-0.0147669999999999,-0.01114811,0.0,0 STARLINK-4125,1 53244U 22086C   22228.58334491 -.01114811  00000-0 -14767-1 0  9994,2 53244  53.2176 289.5086 0001592  42.8198  90.0665 15.60317237  1306,6764.877,92.289,387.819,385.665,0.0
53244.0,STARLINK-4125,PAYLOAD,2022-08-16 22:00:00,15.59517803,0.0001624,53.2176,287.8883,40.9545,164.893,-0.015309,-0.01120154,0.0,0 STARLINK-4125,1 53244U 22086C   22228.91667824 -.01120154  00000-0 -15309-1 0  9990,2 53244  53.2176 287.8883 0001624  40.9545 164.8930 15.59517803  1307,6767.189,92.336,390.153,387.955,0.0
53244.0,STARLINK-4125,PAYLOAD,2022-08-17 14:00:01,15.57910777,0.0001329,53.2174,284.6591,44.7801,304.0947,-0.016238,-0.01117649,0.0,0 STARLINK-4125,1 53244U 22086C   22229.58334491 -.01117649  00000-0 -16238-1 0  9992,2 53244  53.2174 284.6591 0001329  44.7801 304.0947 15.57910777  4411,6771.842,92.431,394.607,392.807,0.0
53244.0,STARLINK-4125,PAYLOAD,2022-08-18 08:00:01,15.56112594,0.0001569,53.2174,281.0329,47.1949,187.9694,-0.017546,-0.01127698,0.0,0 STARLINK-4125,1 53244U 22086C   22230.33334491 -.01127698  00000-0 -17546-1 0  9995,2 53244  53.2174 281.0329 0001569  47.1949 187.9694 15.56112594  4526,6777.057,92.538,399.986,397.859,0.0
53244.0,STARLINK-4125,PAYLOAD,2022-08-18 14:00:01,15.55569317,0.0001733999999999,53.2174,279.8285,34.8063,161.334,-0.019116,-0.01196312,0.0,0 STARLINK-4125,1 53244U 22086C   22230.58334491 -.01196312  00000-0 -19116-1 0  9996,2 53244  53.2174 279.8285 0001734  34.8063 161.3340 15.55569317  1301,6778.635,92.571,401.676,399.325,0.0
53244.0,STARLINK-4125,PAYLOAD,2022-08-18 22:00:00,15.54699244,0.0001559,53.2176,278.2181,39.9589,223.3955,-0.018295,-0.01116804,0.0,0 STARLINK-4125,1 53244U 22086C   22230.91667824 -.01116804  00000-0 -18295-1 0  9997,2 53244  53.2176 278.2181 0001559  39.9589 223.3955 15.54699244  1308,6781.1640000000025,92.622,404.086,401.972,0.0
53244.0,STARLINK-4125,PAYLOAD,2022-08-19 04:00:01,15.54096872,0.0001662,53.2176,277.0141,42.6364,180.5286,-0.0186789999999999,-0.01115382,0.0,0 STARLINK-4125,1 53244U 22086C   22231.16668981 -.01115382  00000-0 -18679-1 0  9996,2 53244  53.2176 277.0141 0001662  42.6364 180.5286 15.54096872  4658,6782.916,92.658,405.909,403.654,0.0
53244.0,STARLINK-4125,PAYLOAD,2022-08-19 14:00:01,15.53091792,0.0001472,53.2174,275.012,38.5642,356.2399,-0.019341,-0.01113299,0.0,0 STARLINK-4125,1 53244U 22086C   22231.58334491 -.01113299  00000-0 -19341-1 0  9990,2 53244  53.2174 275.0120 0001472  38.5642 356.2399 15.53091792  1304,6785.842,92.718,408.706,406.708,0.0
53244.0,STARLINK-4125,PAYLOAD,2022-08-19 22:00:00,15.52288503,0.0001688,53.2175,273.4091,34.2032,64.8803,-0.0199069999999999,-0.0111297,0.0,0 STARLINK-4125,1 53244U 22086C   22231.91667824 -.01112970  00000-0 -19907-1 0  9999,2 53244  53.2175 273.4091 0001688  34.2032  64.8803 15.52288503  4772,6788.183000000001,92.766,411.194,408.902,0.0
